HIMAWARI-8              
1 40267U 14060A   24134.56090917 -.00000280  00000+0  00000+0 0  9990
2 40267   0.0494 116.8906 0001015 338.1543 119.3308  1.00270603 35094
